{
    "links": {
        "self": "http://www.neowsapp.com/rest/v1/neo/3843585?api_key=iIulBulltgU6a56xZRHN4H3l9WmuAYTsLGpBGhQ2"
    },
    "id": "3843585",
    "neo_reference_id": "3843585",
    "name": "(2019 QU)",
    "designation": "2019 QU",
    "nasa_jpl_url": "http://ssd.jpl.nasa.gov/sbdb.cgi?sstr=3843585",
    "absolute_magnitude_h": 25.1,
    "estimated_diameter": {
        "kilometers": {
            "estimated_diameter_min": 0.0253837029,
            "estimated_diameter_max": 0.0567596853
        },
        "meters": {
            "estimated_diameter_min": 25.3837029364,
            "estimated_diameter_max": 56.7596852866
        },
        "miles": {
            "estimated_diameter_min": 0.0157726969,
            "estimated_diameter_max": 0.0352688224
        },
        "feet": {
            "estimated_diameter_min": 83.279867942,
            "estimated_diameter_max": 186.2194458756
        }
    },
    "is_potentially_hazardous_asteroid": false,
    "close_approach_data": [
        {
            "close_approach_date": "2019-08-17",
            "close_approach_date_full": "2019-Aug-17 04:03",
            "epoch_date_close_approach": 1566014580000,
            "relative_velocity": {
                "kilometers_per_second": "10.9866718286",
                "kilometers_per_hour": "39552.0185828275",
                "miles_per_hour": "24576.086213313"
            },
            "miss_distance": {
                "astronomical": "0.0480169532",
                "lunar": "18.6785947948",
                "kilometers": "7183233.922609684",
                "miles": "4463454.5863702792"
            },
            "orbiting_body": "Earth"
        }
    ],
    "orbital_data": {
        "orbit_id": "4",
        "orbit_determination_date": "2019-09-05 05:55:04",
        "first_observation_date": "2019-08-21",
        "last_observation_date": "2019-09-03",
        "data_arc_in_days": 13,
        "observations_used": 38,
        "orbit_uncertainty": "8",
        "minimum_orbit_intersection": ".0480278",
        "jupiter_tisserand_invariant": "3.411",
        "epoch_osculation": "2458719.5",
        "eccentricity": ".529270400257483",
        "semi_major_axis": "2.224823849668304",
        "inclination": "14.97651535638699",
        "ascending_node_longitude": "327.0954273100434",
        "orbital_period": "1212.109552910288",
        "perihelion_distance": "1.047290440251967",
        "perihelion_argument": "342.8072544176538",
        "aphelion_distance": "3.402357259084642",
        "perihelion_time": "2458700.551712993613",
        "mean_anomaly": "5.627695372849019",
        "mean_motion": ".297002856825636",
        "equinox": "J2000",
        "orbit_class": {
            "orbit_class_type": "AMO",
            "orbit_class_description": "Near-Earth asteroid orbits similar to that of 1221 Amor",
            "orbit_class_range": "1.017 AU < q (perihelion) < 1.3 AU"
        }
    },
    "is_sentry_object": false
}